[{"OBJECT_NAME":"STARLINK-5354","OBJECT_ID":"2023-090AR","EPOCH":"2024-01-22T10:51:06.027840","MEAN_MOTION":15.02536238,"ECCENTRICITY":0.0001297,"INCLINATION":43.0018,"RA_OF_ASC_NODE":165.1763,"ARG_OF_PERICENTER":269.9668,"MEAN_ANOMALY":90.1025,"EPHEMERIS_TYPE":0,"CLASSIFICATION_TYPE":"U","NORAD_CAT_ID":57140,"ELEMENT_SET_NO":999,"REV_AT_EPOCH":3250,"BSTAR":7.5719e-5,"MEAN_MOTION_DOT":8.19e-6,"MEAN_MOTION_DDOT":0},{"OBJECT_NAME":"STARLINK-5357","OBJECT_ID":"2023-090AS","EPOCH":"2024-01-22T10:38:18.807072","MEAN_MOTION":15.02543373,"ECCENTRICITY":0.0001204,"INCLINATION":43.0021,"RA_OF_ASC_NODE":165.1116,"ARG_OF_PERICENTER":267.8812,"MEAN_ANOMALY":92.1893,"EPHEMERIS_TYPE":0,"CLASSIFICATION_TYPE":"U","NORAD_CAT_ID":57141,"ELEMENT_SET_NO":999,"REV_AT_EPOCH":3250,"BSTAR":0.00081395,"MEAN_MOTION_DOT":0.00010811,"MEAN_MOTION_DDOT":0},{"OBJECT_NAME":"STARLINK-5361","OBJECT_ID":"2023-090AT","EPOCH":"2024-01-22T10:31:55.062336","MEAN_MOTION":15.02538526,"ECCENTRICITY":0.0001235,"INCLINATION":43.0025,"RA_OF_ASC_NODE":165.0778,"ARG_OF_PERICENTER":265.0762,"MEAN_ANOMALY":94.9939,"EPHEMERIS_TYPE":0,"CLASSIFICATION_TYPE":"U","NORAD_CAT_ID":57142,"ELEMENT_SET_NO":999,"REV_AT_EPOCH":3250,"BSTAR":0.00016042,"MEAN_MOTION_DOT":1.964e-5,"MEAN_MOTION_DDOT":0},{"OBJECT_NAME":"STARLINK-5358","OBJECT_ID":"2023-090AU","EPOCH":"2024-01-22T18:25:45.563808","MEAN_MOTION":15.02544769,"ECCENTRICITY":0.000132,"INCLINATION":43.0028,"RA_OF_ASC_NODE":163.248,"ARG_OF_PERICENTER":265.0084,"MEAN_ANOMALY":95.0608,"EPHEMERIS_TYPE":0,"CLASSIFICATION_TYPE":"U","NORAD_CAT_ID":57143,"ELEMENT_SET_NO":999,"REV_AT_EPOCH":3255,"BSTAR":0.00029454,"MEAN_MOTION_DOT":3.778e-5,"MEAN_MOTION_DDOT":0},{"OBJECT_NAME":"STARLINK-5150","OBJECT_ID":"2023-090AV","EPOCH":"2024-01-22T10:43:06.572640","MEAN_MOTION":15.02534175,"ECCENTRICITY":0.0001243,"INCLINATION":43.0046,"RA_OF_ASC_NODE":165.1363,"ARG_OF_PERICENTER":264.6829,"MEAN_ANOMALY":95.3871,"EPHEMERIS_TYPE":0,"CLASSIFICATION_TYPE":"U","NORAD_CAT_ID":57144,"ELEMENT_SET_NO":999,"REV_AT_EPOCH":3250,"BSTAR":-1.9832e-5,"MEAN_MOTION_DOT":-4.71e-6,"MEAN_MOTION_DDOT":0},{"OBJECT_NAME":"STARLINK-5768","OBJECT_ID":"2023-090AW","EPOCH":"2024-01-22T16:37:14.606688","MEAN_MOTION":15.02540298,"ECCENTRICITY":0.0001157,"INCLINATION":43.0039,"RA_OF_ASC_NODE":163.5396,"ARG_OF_PERICENTER":270.2207,"MEAN_ANOMALY":89.8503,"EPHEMERIS_TYPE":0,"CLASSIFICATION_TYPE":"U","NORAD_CAT_ID":57145,"ELEMENT_SET_NO":999,"REV_AT_EPOCH":3254,"BSTAR":0.00011382,"MEAN_MOTION_DOT":1.334e-5,"MEAN_MOTION_DDOT":0},{"OBJECT_NAME":"STARLINK-5791","OBJECT_ID":"2023-090AX","EPOCH":"2024-01-22T18:22:33.961440","MEAN_MOTION":15.02550663,"ECCENTRICITY":0.0001214,"INCLINATION":43.0024,"RA_OF_ASC_NODE":163.2297,"ARG_OF_PERICENTER":269.7419,"MEAN_ANOMALY":90.3284,"EPHEMERIS_TYPE":0,"CLASSIFICATION_TYPE":"U","NORAD_CAT_ID":57146,"ELEMENT_SET_NO":999,"REV_AT_EPOCH":3255,"BSTAR":0.00076697,"MEAN_MOTION_DOT":0.00010176,"MEAN_MOTION_DDOT":0},{"OBJECT_NAME":"STARLINK-5765","OBJECT_ID":"2023-090AY","EPOCH":"2024-01-22T16:30:50.958720","MEAN_MOTION":15.0254545,"ECCENTRICITY":0.0001155,"INCLINATION":43.0035,"RA_OF_ASC_NODE":163.5038,"ARG_OF_PERICENTER":270.1489,"MEAN_ANOMALY":89.9221,"EPHEMERIS_TYPE":0,"CLASSIFICATION_TYPE":"U","NORAD_CAT_ID":57147,"ELEMENT_SET_NO":999,"REV_AT_EPOCH":3254,"BSTAR":8.743e-5,"MEAN_MOTION_DOT":9.78e-6,"MEAN_MOTION_DDOT":0},{"OBJECT_NAME":"STARLINK-5788","OBJECT_ID":"2023-090AZ","EPOCH":"2024-01-22T16:21:15.904512","MEAN_MOTION":15.02538774,"ECCENTRICITY":0.0001069,"INCLINATION":43.0035,"RA_OF_ASC_NODE":163.4549,"ARG_OF_PERICENTER":269.1437,"MEAN_ANOMALY":90.9283,"EPHEMERIS_TYPE":0,"CLASSIFICATION_TYPE":"U","NORAD_CAT_ID":57148,"ELEMENT_SET_NO":999,"REV_AT_EPOCH":3254,"BSTAR":0.00011919,"MEAN_MOTION_DOT":1.407e-5,"MEAN_MOTION_DDOT":0},{"OBJECT_NAME":"STARLINK-5778","OBJECT_ID":"2023-090BA","EPOCH":"2024-01-22T18:26:28.917600","MEAN_MOTION":15.02549289,"ECCENTRICITY":0.000115,"INCLINATION":43.0032,"RA_OF_ASC_NODE":137.2045,"ARG_OF_PERICENTER":276.3102,"MEAN_ANOMALY":83.7609,"EPHEMERIS_TYPE":0,"CLASSIFICATION_TYPE":"U","NORAD_CAT_ID":57149,"ELEMENT_SET_NO":999,"REV_AT_EPOCH":3286,"BSTAR":0.00012886,"MEAN_MOTION_DOT":1.538e-5,"MEAN_MOTION_DDOT":0},{"OBJECT_NAME":"STARLINK-5780","OBJECT_ID":"2023-090BB","EPOCH":"2024-01-22T16:42:02.577888","MEAN_MOTION":15.02543958,"ECCENTRICITY":0.000122,"INCLINATION":43.0028,"RA_OF_ASC_NODE":163.5657,"ARG_OF_PERICENTER":264.959,"MEAN_ANOMALY":95.1113,"EPHEMERIS_TYPE":0,"CLASSIFICATION_TYPE":"U","NORAD_CAT_ID":57150,"ELEMENT_SET_NO":999,"REV_AT_EPOCH":3254,"BSTAR":0.00020118,"MEAN_MOTION_DOT":2.516e-5,"MEAN_MOTION_DDOT":0},{"OBJECT_NAME":"STARLINK-5776","OBJECT_ID":"2023-090BC","EPOCH":"2024-01-22T10:17:31.947936","MEAN_MOTION":15.02532383,"ECCENTRICITY":0.000117,"INCLINATION":43.002,"RA_OF_ASC_NODE":165.0009,"ARG_OF_PERICENTER":261.1844,"MEAN_ANOMALY":98.8866,"EPHEMERIS_TYPE":0,"CLASSIFICATION_TYPE":"U","NORAD_CAT_ID":57151,"ELEMENT_SET_NO":999,"REV_AT_EPOCH":3250,"BSTAR":-6.1656e-6,"MEAN_MOTION_DOT":-2.87e-6,"MEAN_MOTION_DDOT":0},{"OBJECT_NAME":"STARLINK-6164","OBJECT_ID":"2023-090BD","EPOCH":"2024-01-22T18:20:57.828480","MEAN_MOTION":15.02550506,"ECCENTRICITY":0.000154,"INCLINATION":43.0026,"RA_OF_ASC_NODE":163.2218,"ARG_OF_PERICENTER":264.3626,"MEAN_ANOMALY":95.704,"EPHEMERIS_TYPE":0,"CLASSIFICATION_TYPE":"U","NORAD_CAT_ID":57152,"ELEMENT_SET_NO":999,"REV_AT_EPOCH":3255,"BSTAR":0.00016504,"MEAN_MOTION_DOT":2.027e-5,"MEAN_MOTION_DDOT":0},{"OBJECT_NAME":"STARLINK-5879","OBJECT_ID":"2023-090BE","EPOCH":"2024-01-22T09:20:32.483904","MEAN_MOTION":15.02527385,"ECCENTRICITY":0.0001187,"INCLINATION":43.0037,"RA_OF_ASC_NODE":152.5473,"ARG_OF_PERICENTER":263.3282,"MEAN_ANOMALY":96.7425,"EPHEMERIS_TYPE":0,"CLASSIFICATION_TYPE":"U","NORAD_CAT_ID":57153,"ELEMENT_SET_NO":999,"REV_AT_EPOCH":3264,"BSTAR":-7.7053e-5,"MEAN_MOTION_DOT":-1.244e-5,"MEAN_MOTION_DDOT":0},{"OBJECT_NAME":"STARLINK-6106","OBJECT_ID":"2023-090BF","EPOCH":"2024-01-22T18:08:10.578336","MEAN_MOTION":15.02542109,"ECCENTRICITY":0.0001226,"INCLINATION":43.0047,"RA_OF_ASC_NODE":163.1543,"ARG_OF_PERICENTER":272.6876,"MEAN_ANOMALY":87.3826,"EPHEMERIS_TYPE":0,"CLASSIFICATION_TYPE":"U","NORAD_CAT_ID":57154,"ELEMENT_SET_NO":999,"REV_AT_EPOCH":3255,"BSTAR":0.00013858,"MEAN_MOTION_DOT":1.669e-5,"MEAN_MOTION_DDOT":0},{"OBJECT_NAME":"STARLINK-6108","OBJECT_ID":"2023-090BG","EPOCH":"2024-01-22T16:11:40.577280","MEAN_MOTION":15.02542957,"ECCENTRICITY":0.0001299,"INCLINATION":43.0021,"RA_OF_ASC_NODE":163.4049,"ARG_OF_PERICENTER":271.2208,"MEAN_ANOMALY":88.8486,"EPHEMERIS_TYPE":0,"CLASSIFICATION_TYPE":"U","NORAD_CAT_ID":57155,"ELEMENT_SET_NO":999,"REV_AT_EPOCH":3254,"BSTAR":1.8543e-5,"MEAN_MOTION_DOT":4.7e-7,"MEAN_MOTION_DDOT":0},{"OBJECT_NAME":"STARLINK-6137","OBJECT_ID":"2023-090BH","EPOCH":"2024-01-21T19:32:00.589344","MEAN_MOTION":15.02535877,"ECCENTRICITY":0.0001137,"INCLINATION":43.0039,"RA_OF_ASC_NODE":168.127,"ARG_OF_PERICENTER":268.8585,"MEAN_ANOMALY":91.2127,"EPHEMERIS_TYPE":0,"CLASSIFICATION_TYPE":"U","NORAD_CAT_ID":57156,"ELEMENT_SET_NO":999,"REV_AT_EPOCH":3241,"BSTAR":0.00014203,"MEAN_MOTION_DOT":1.715e-5,"MEAN_MOTION_DDOT":0}]
