STARLINK-5354           
1 57140U 23090AR  24022.45215310  .00000819  00000+0  75719-4 0  9992
2 57140  43.0018 165.1763 0001297 269.9668  90.1025 15.02536238 32501
STARLINK-5357           
1 57141U 23090AS  24022.44327323  .00010811  00000+0  81395-3 0  9999
2 57141  43.0021 165.1116 0001204 267.8812  92.1893 15.02543373 32507
STARLINK-5361           
1 57142U 23090AT  24022.43883174  .00001964  00000+0  16042-3 0  9996
2 57142  43.0025 165.0778 0001235 265.0762  94.9939 15.02538526 32508
STARLINK-5358           
1 57143U 23090AU  24022.76788847  .00003778  00000+0  29454-3 0  9990
2 57143  43.0028 163.2480 0001320 265.0084  95.0608 15.02544769 32550
STARLINK-5150           
1 57144U 23090AV  24022.44660385 -.00000471  00000+0 -19832-4 0  9991
2 57144  43.0046 165.1363 0001243 264.6829  95.3871 15.02534175 32508
STARLINK-5768           
1 57145U 23090AW  24022.69253017  .00001334  00000+0  11382-3 0  9997
2 57145  43.0039 163.5396 0001157 270.2207  89.8503 15.02540298 32543
STARLINK-5791           
1 57146U 23090AX  24022.76567085  .00010176  00000+0  76697-3 0  9993
2 57146  43.0024 163.2297 0001214 269.7419  90.3284 15.02550663 32558
STARLINK-5765           
1 57147U 23090AY  24022.68808980  .00000978  00000+0  87430-4 0  9994
2 57147  43.0035 163.5038 0001155 270.1489  89.9221 15.02545450 32546
STARLINK-5788           
1 57148U 23090AZ  24022.68143408  .00001407  00000+0  11919-3 0  9998
2 57148  43.0035 163.4549 0001069 269.1437  90.9283 15.02538774 32549
STARLINK-5778           
1 57149U 23090BA  24022.76839025  .00001538  00000+0  12886-3 0  9994
2 57149  43.0032 137.2045 0001150 276.3102  83.7609 15.02549289 32867
STARLINK-5780           
1 57150U 23090BB  24022.69586317  .00002516  00000+0  20118-3 0  9995
2 57150  43.0028 163.5657 0001220 264.9590  95.1113 15.02543958 32546
STARLINK-5776           
1 57151U 23090BC  24022.42884199 -.00000287  00000+0 -61656-5 0  9995
2 57151  43.0020 165.0009 0001170 261.1844  98.8866 15.02532383 32503
STARLINK-6164           
1 57152U 23090BD  24022.76455820  .00002027  00000+0  16504-3 0  9990
2 57152  43.0026 163.2218 0001540 264.3626  95.7040 15.02550506 32558
STARLINK-5879           
1 57153U 23090BE  24022.38926486 -.00001244  00000+0 -77053-4 0  9999
2 57153  43.0037 152.5473 0001187 263.3282  96.7425 15.02527385 32646
STARLINK-6106           
1 57154U 23090BF  24022.75567799  .00001669  00000+0  13858-3 0  9990
2 57154  43.0047 163.1543 0001226 272.6876  87.3826 15.02542109 32552
STARLINK-6108           
1 57155U 23090BG  24022.67477520  .00000047  00000+0  18543-4 0  9990
2 57155  43.0021 163.4049 0001299 271.2208  88.8486 15.02542957 32541
STARLINK-6137           
1 57156U 23090BH  24021.81389571  .00001715  00000+0  14203-3 0  9995
2 57156  43.0039 168.1270 0001137 268.8585  91.2127 15.02535877 32419
